[{"OBJECT_NAME":"STARLINK-34139","OBJECT_ID":"2025-099Z","EPOCH":"2025-08-28T00:10:13.259424","MEAN_MOTION":15.27594923,"ECCENTRICITY":4.947e-5,"INCLINATION":43.0014,"RA_OF_ASC_NODE":186.687,"ARG_OF_PERICENTER":101.8825,"MEAN_ANOMALY":258.2082,"EPHEMERIS_TYPE":0,"CLASSIFICATION_TYPE":"U","NORAD_CAT_ID":63975,"ELEMENT_SET_NO":999,"REV_AT_EPOCH":1766,"BSTAR":0.0010116947,"MEAN_MOTION_DOT":0.00027695,"MEAN_MOTION_DDOT":0},{"OBJECT_NAME":"STARLINK-34090","OBJECT_ID":"2025-099AA","EPOCH":"2025-08-28T04:47:07.838592","MEAN_MOTION":15.27614829,"ECCENTRICITY":0.00013859,"INCLINATION":42.9992,"RA_OF_ASC_NODE":185.5469,"ARG_OF_PERICENTER":254.2635,"MEAN_ANOMALY":105.8064,"EPHEMERIS_TYPE":0,"CLASSIFICATION_TYPE":"U","NORAD_CAT_ID":63976,"ELEMENT_SET_NO":999,"REV_AT_EPOCH":1769,"BSTAR":0.0010257323,"MEAN_MOTION_DOT":0.00028102,"MEAN_MOTION_DDOT":0},{"OBJECT_NAME":"STARLINK-34105","OBJECT_ID":"2025-099AB","EPOCH":"2025-08-28T00:00:57.459456","MEAN_MOTION":15.27595009,"ECCENTRICITY":0.00013901,"INCLINATION":42.9999,"RA_OF_ASC_NODE":186.6339,"ARG_OF_PERICENTER":244.7525,"MEAN_ANOMALY":115.3183,"EPHEMERIS_TYPE":0,"CLASSIFICATION_TYPE":"U","NORAD_CAT_ID":63977,"ELEMENT_SET_NO":999,"REV_AT_EPOCH":1766,"BSTAR":0.0010166719,"MEAN_MOTION_DOT":0.00027833,"MEAN_MOTION_DDOT":0},{"OBJECT_NAME":"STARLINK-33642","OBJECT_ID":"2025-099AC","EPOCH":"2025-08-28T06:06:31.082688","MEAN_MOTION":15.27605026,"ECCENTRICITY":0.00020827,"INCLINATION":43.0024,"RA_OF_ASC_NODE":185.1001,"ARG_OF_PERICENTER":277.4723,"MEAN_ANOMALY":82.5892,"EPHEMERIS_TYPE":0,"CLASSIFICATION_TYPE":"U","NORAD_CAT_ID":63978,"ELEMENT_SET_NO":999,"REV_AT_EPOCH":1770,"BSTAR":0.0013036868,"MEAN_MOTION_DOT":0.00035815,"MEAN_MOTION_DDOT":0},{"OBJECT_NAME":"STARLINK-34045","OBJECT_ID":"2025-099AD","EPOCH":"2025-08-27T04:54:25.884000","MEAN_MOTION":15.27600412,"ECCENTRICITY":9.866e-5,"INCLINATION":43.0014,"RA_OF_ASC_NODE":190.9755,"ARG_OF_PERICENTER":300.5926,"MEAN_ANOMALY":59.4828,"EPHEMERIS_TYPE":0,"CLASSIFICATION_TYPE":"U","NORAD_CAT_ID":63979,"ELEMENT_SET_NO":999,"REV_AT_EPOCH":1754,"BSTAR":0.0011416895,"MEAN_MOTION_DOT":0.00031308,"MEAN_MOTION_DDOT":0},{"OBJECT_NAME":"STARLINK-33871","OBJECT_ID":"2025-101A","EPOCH":"2025-08-27T08:59:58.066368","MEAN_MOTION":15.27613467,"ECCENTRICITY":0.00012596,"INCLINATION":43.0048,"RA_OF_ASC_NODE":15.6657,"ARG_OF_PERICENTER":275.3841,"MEAN_ANOMALY":84.6867,"EPHEMERIS_TYPE":0,"CLASSIFICATION_TYPE":"U","NORAD_CAT_ID":63994,"ELEMENT_SET_NO":999,"REV_AT_EPOCH":1726,"BSTAR":0.0013825507,"MEAN_MOTION_DOT":0.00038018,"MEAN_MOTION_DDOT":0},{"OBJECT_NAME":"STARLINK-34154","OBJECT_ID":"2025-101B","EPOCH":"2025-08-28T09:25:45.867072","MEAN_MOTION":15.27595624,"ECCENTRICITY":0.00018473,"INCLINATION":43.0037,"RA_OF_ASC_NODE":9.5482,"ARG_OF_PERICENTER":279.2623,"MEAN_ANOMALY":80.802,"EPHEMERIS_TYPE":0,"CLASSIFICATION_TYPE":"U","NORAD_CAT_ID":63995,"ELEMENT_SET_NO":999,"REV_AT_EPOCH":1749,"BSTAR":0.0014988631,"MEAN_MOTION_DOT":0.00041234,"MEAN_MOTION_DDOT":0},{"OBJECT_NAME":"STARLINK-34158","OBJECT_ID":"2025-101C","EPOCH":"2025-08-28T20:13:45.198336","MEAN_MOTION":15.27632923,"ECCENTRICITY":0.00019363,"INCLINATION":43.0032,"RA_OF_ASC_NODE":6.9465,"ARG_OF_PERICENTER":288.4467,"MEAN_ANOMALY":71.6175,"EPHEMERIS_TYPE":0,"CLASSIFICATION_TYPE":"U","NORAD_CAT_ID":63996,"ELEMENT_SET_NO":999,"REV_AT_EPOCH":1756,"BSTAR":0.0015072369,"MEAN_MOTION_DOT":0.00041515,"MEAN_MOTION_DDOT":0},{"OBJECT_NAME":"STARLINK-34165","OBJECT_ID":"2025-101D","EPOCH":"2025-08-28T08:58:00.448320","MEAN_MOTION":15.27606858,"ECCENTRICITY":0.00027057,"INCLINATION":43.0001,"RA_OF_ASC_NODE":9.3959,"ARG_OF_PERICENTER":285.3727,"MEAN_ANOMALY":74.6826,"EPHEMERIS_TYPE":0,"CLASSIFICATION_TYPE":"U","NORAD_CAT_ID":63997,"ELEMENT_SET_NO":999,"REV_AT_EPOCH":1749,"BSTAR":0.0016117672,"MEAN_MOTION_DOT":0.00044397,"MEAN_MOTION_DDOT":0},{"OBJECT_NAME":"STARLINK-34150","OBJECT_ID":"2025-101E","EPOCH":"2025-08-28T09:55:22.849824","MEAN_MOTION":15.27600436,"ECCENTRICITY":0.00019732,"INCLINATION":43.0061,"RA_OF_ASC_NODE":9.707,"ARG_OF_PERICENTER":294.7872,"MEAN_ANOMALY":65.2774,"EPHEMERIS_TYPE":0,"CLASSIFICATION_TYPE":"U","NORAD_CAT_ID":63998,"ELEMENT_SET_NO":999,"REV_AT_EPOCH":1749,"BSTAR":0.001231134,"MEAN_MOTION_DOT":0.00033793,"MEAN_MOTION_DDOT":0},{"OBJECT_NAME":"STARLINK-34169","OBJECT_ID":"2025-101F","EPOCH":"2025-08-28T09:12:51.010272","MEAN_MOTION":15.27540527,"ECCENTRICITY":0.00038292,"INCLINATION":43.0008,"RA_OF_ASC_NODE":9.4736,"ARG_OF_PERICENTER":291.5985,"MEAN_ANOMALY":68.4458,"EPHEMERIS_TYPE":0,"CLASSIFICATION_TYPE":"U","NORAD_CAT_ID":63999,"ELEMENT_SET_NO":999,"REV_AT_EPOCH":1749,"BSTAR":0.0013684783,"MEAN_MOTION_DOT":0.00037547,"MEAN_MOTION_DDOT":0},{"OBJECT_NAME":"STARLINK-34152","OBJECT_ID":"2025-101G","EPOCH":"2025-08-28T20:21:08.440704","MEAN_MOTION":15.27622258,"ECCENTRICITY":0.00030334,"INCLINATION":43.005,"RA_OF_ASC_NODE":6.9426,"ARG_OF_PERICENTER":291.8217,"MEAN_ANOMALY":68.2312,"EPHEMERIS_TYPE":0,"CLASSIFICATION_TYPE":"U","NORAD_CAT_ID":64000,"ELEMENT_SET_NO":999,"REV_AT_EPOCH":1756,"BSTAR":0.0011261264,"MEAN_MOTION_DOT":0.00030899,"MEAN_MOTION_DDOT":0},{"OBJECT_NAME":"STARLINK-33927","OBJECT_ID":"2025-101H","EPOCH":"2025-08-28T10:19:25.303872","MEAN_MOTION":15.27592533,"ECCENTRICITY":0.00025063,"INCLINATION":43.0036,"RA_OF_ASC_NODE":9.8288,"ARG_OF_PERICENTER":280.3666,"MEAN_ANOMALY":79.6904,"EPHEMERIS_TYPE":0,"CLASSIFICATION_TYPE":"U","NORAD_CAT_ID":64001,"ELEMENT_SET_NO":999,"REV_AT_EPOCH":1749,"BSTAR":0.00084239829,"MEAN_MOTION_DOT":0.00023001,"MEAN_MOTION_DDOT":0},{"OBJECT_NAME":"STARLINK-33898","OBJECT_ID":"2025-101J","EPOCH":"2025-08-27T09:01:49.293408","MEAN_MOTION":15.27608042,"ECCENTRICITY":3.313e-5,"INCLINATION":43.0031,"RA_OF_ASC_NODE":15.6782,"ARG_OF_PERICENTER":337.2348,"MEAN_ANOMALY":22.8488,"EPHEMERIS_TYPE":0,"CLASSIFICATION_TYPE":"U","NORAD_CAT_ID":64002,"ELEMENT_SET_NO":999,"REV_AT_EPOCH":1733,"BSTAR":0.0012792867,"MEAN_MOTION_DOT":0.00035139,"MEAN_MOTION_DDOT":0},{"OBJECT_NAME":"STARLINK-33928","OBJECT_ID":"2025-101K","EPOCH":"2025-08-26T16:02:32.236224","MEAN_MOTION":15.27591769,"ECCENTRICITY":5.165e-5,"INCLINATION":43.0015,"RA_OF_ASC_NODE":18.9573,"ARG_OF_PERICENTER":246.3814,"MEAN_ANOMALY":113.6983,"EPHEMERIS_TYPE":0,"CLASSIFICATION_TYPE":"U","NORAD_CAT_ID":64003,"ELEMENT_SET_NO":999,"REV_AT_EPOCH":1723,"BSTAR":0.00060916537,"MEAN_MOTION_DOT":0.00016544,"MEAN_MOTION_DDOT":0},{"OBJECT_NAME":"STARLINK-33758","OBJECT_ID":"2025-101L","EPOCH":"2025-08-28T15:59:01.987008","MEAN_MOTION":15.27615259,"ECCENTRICITY":0.0002669,"INCLINATION":43.0052,"RA_OF_ASC_NODE":8.1569,"ARG_OF_PERICENTER":290.5036,"MEAN_ANOMALY":69.5529,"EPHEMERIS_TYPE":0,"CLASSIFICATION_TYPE":"U","NORAD_CAT_ID":64004,"ELEMENT_SET_NO":999,"REV_AT_EPOCH":1753,"BSTAR":0.001316503,"MEAN_MOTION_DOT":0.00036184,"MEAN_MOTION_DDOT":0},{"OBJECT_NAME":"STARLINK-33936","OBJECT_ID":"2025-101M","EPOCH":"2025-08-28T20:17:26.422080","MEAN_MOTION":15.27633707,"ECCENTRICITY":0.00024557,"INCLINATION":43.0045,"RA_OF_ASC_NODE":6.9213,"ARG_OF_PERICENTER":291.6655,"MEAN_ANOMALY":68.3935,"EPHEMERIS_TYPE":0,"CLASSIFICATION_TYPE":"U","NORAD_CAT_ID":64005,"ELEMENT_SET_NO":999,"REV_AT_EPOCH":1756,"BSTAR":0.0014614687,"MEAN_MOTION_DOT":0.00040242,"MEAN_MOTION_DDOT":0},{"OBJECT_NAME":"STARLINK-33931","OBJECT_ID":"2025-101N","EPOCH":"2025-08-28T08:52:27.285600","MEAN_MOTION":15.27596924,"ECCENTRICITY":0.00034582,"INCLINATION":43.0037,"RA_OF_ASC_NODE":9.3637,"ARG_OF_PERICENTER":281.9238,"MEAN_ANOMALY":78.1226,"EPHEMERIS_TYPE":0,"CLASSIFICATION_TYPE":"U","NORAD_CAT_ID":64006,"ELEMENT_SET_NO":999,"REV_AT_EPOCH":1751,"BSTAR":0.0011150367,"MEAN_MOTION_DOT":0.00030568,"MEAN_MOTION_DDOT":0},{"OBJECT_NAME":"STARLINK-33759","OBJECT_ID":"2025-101P","EPOCH":"2025-08-28T09:07:15.337632","MEAN_MOTION":15.27609002,"ECCENTRICITY":0.00011898,"INCLINATION":43.001,"RA_OF_ASC_NODE":9.4389,"ARG_OF_PERICENTER":199.4175,"MEAN_ANOMALY":160.6632,"EPHEMERIS_TYPE":0,"CLASSIFICATION_TYPE":"U","NORAD_CAT_ID":64007,"ELEMENT_SET_NO":999,"REV_AT_EPOCH":1749,"BSTAR":0.0013216871,"MEAN_MOTION_DOT":0.00036319,"MEAN_MOTION_DDOT":0},{"OBJECT_NAME":"STARLINK-34163","OBJECT_ID":"2025-101Q","EPOCH":"2025-08-28T16:06:26.273952","MEAN_MOTION":15.27589816,"ECCENTRICITY":0.00013004,"INCLINATION":43.0023,"RA_OF_ASC_NODE":8.1936,"ARG_OF_PERICENTER":266.2242,"MEAN_ANOMALY":93.8461,"EPHEMERIS_TYPE":0,"CLASSIFICATION_TYPE":"U","NORAD_CAT_ID":64008,"ELEMENT_SET_NO":999,"REV_AT_EPOCH":1753,"BSTAR":0.0010220687,"MEAN_MOTION_DOT":0.00027978,"MEAN_MOTION_DDOT":0},{"OBJECT_NAME":"STARLINK-34077","OBJECT_ID":"2025-101R","EPOCH":"2025-08-28T09:05:24.304992","MEAN_MOTION":15.27596823,"ECCENTRICITY":0.00022662,"INCLINATION":43.0025,"RA_OF_ASC_NODE":9.4295,"ARG_OF_PERICENTER":286.0394,"MEAN_ANOMALY":74.0208,"EPHEMERIS_TYPE":0,"CLASSIFICATION_TYPE":"U","NORAD_CAT_ID":64009,"ELEMENT_SET_NO":999,"REV_AT_EPOCH":1749,"BSTAR":0.0015815216,"MEAN_MOTION_DOT":0.00043539,"MEAN_MOTION_DDOT":0},{"OBJECT_NAME":"STARLINK-34113","OBJECT_ID":"2025-101S","EPOCH":"2025-08-28T19:25:50.618496","MEAN_MOTION":15.27618602,"ECCENTRICITY":0.00017434,"INCLINATION":43.005,"RA_OF_ASC_NODE":7.5114,"ARG_OF_PERICENTER":266.1171,"MEAN_ANOMALY":93.9481,"EPHEMERIS_TYPE":0,"CLASSIFICATION_TYPE":"U","NORAD_CAT_ID":64010,"ELEMENT_SET_NO":999,"REV_AT_EPOCH":1755,"BSTAR":0.0010333014,"MEAN_MOTION_DOT":0.00028315,"MEAN_MOTION_DDOT":0},{"OBJECT_NAME":"STARLINK-34193","OBJECT_ID":"2025-101T","EPOCH":"2025-08-28T16:15:41.658336","MEAN_MOTION":15.27610158,"ECCENTRICITY":0.00032132,"INCLINATION":43.0069,"RA_OF_ASC_NODE":8.2437,"ARG_OF_PERICENTER":298.9682,"MEAN_ANOMALY":61.0847,"EPHEMERIS_TYPE":0,"CLASSIFICATION_TYPE":"U","NORAD_CAT_ID":64011,"ELEMENT_SET_NO":999,"REV_AT_EPOCH":1753,"BSTAR":0.0010133961,"MEAN_MOTION_DOT":0.00027757,"MEAN_MOTION_DDOT":0}]
